# From MPEC 2022-K19
P/2020 V4 (Rankin),e,14.2440,203.4841,257.0129,9.363596,0.0343985,0.45017285,18.0596,12/25.0/2022,2000,g  9.0,4.0
# From MPEC 2021-BE3
P/2020 W1 (Rankin),e,10.7885,124.2704,265.0786,7.212034,0.0508882,0.26628670,50.4384,12/25.0/2022,2000,g 10.0,4.0
# From MPEC 2021-BE3
C/2020 W5 (Lemmon),h,11/30.0695/2020,88.5912,75.4783,24.4891,1.000693,3.364818,2000,15.0,4.0
# From MPEC 2022-L66
P/2020 WJ5 (Lemmon),e,22.2943,177.8107,338.2208,6.016182,0.0667917,0.17128092,36.1783,12/25.0/2022,2000,g  8.5,4.0
# From MPEC 2021-P47
P/2020 X1 (ATLAS),e,31.6925,55.9968,323.3918,4.529858,0.1022297,0.36553798,90.6994,12/25.0/2022,2000,g 13.0,4.0
# From MPEC 2021-U31
C/2020 X2 (ATLAS),e,18.1856,105.4317,347.3557,16.43992,0.0147861,0.76720223,11.3711,12/25.0/2022,2000,g 10.6,4.0
# From MPEC 2021-S45
C/2020 X4 (Leonard),e,80.6055,161.8818,140.3037,40.83085,0.0037776,0.87212067,2.9046,12/25.0/2022,2000,g  9.0,4.0
# From MPEC 2022-YB4
C/2020 Y2 (ATLAS),e,101.2979,26.5149,266.1144,1036,0.0000296,0.99697658,0.0000,06/17.7293/2022,2000,g  6.5,4.0
# From MPEC 2021-R75
C/2020 Y3 (ATLAS),e,83.1009,191.4427,341.9754,144.1654,0.0005694,0.98614637,0.0000,12/03.3534/2020,2000,g 13.5,4.0
# From MPEC 2022-H04
C/2021 A1 (Leonard),e,132.6980,255.8965,225.1017,39636,0.0000001,0.99998447,0.0000,01/03.2832/2022,2000,g  8.5,4.0
# From MPEC 2022-F14
C/2021 A2 (NEOWISE),e,106.9821,125.2133,338.7948,236.5412,0.0002709,0.99403009,0.0000,01/22.4927/2021,2000,g 13.5,4.0
# From MPEC 2022-ED3
C/2021 A4 (NEOWISE),e,111.5320,307.1135,204.7044,42.53228,0.0035533,0.97303245,0.0000,03/19.8291/2021,2000,g 16.0,4.0
# From MPEC 2021-BE3
P/2021 A5 (PANSTARRS),e,18.1851,328.7658,61.3025,3.047598,0.1852539,0.13990227,143.1178,12/25.0/2022,2000,g 15.0,4.0
# From MPEC 2022-X67
C/2021 A6 (PANSTARRS),e,75.6082,164.0777,351.6524,9601,0.0000010,0.99917436,0.0000,05/03.5161/2021,2000,g  7.0,4.0
# From MPEC 2022-M88
C/2021 A7 (NEOWISE),e,78.1507,154.5116,356.0217,2712,0.0000070,0.99927470,0.0000,07/15.2264/2021,2000,g 10.0,4.0
# From MPEC 2022-YB4
C/2021 A9 (PANSTARRS),h,12/01.4632/2023,158.0208,314.8425,211.4542,1.002707,7.760269,2000,6.0,4.0
# From MPEC 2021-N06
C/2021 A10 (NEOWISE),e,151.9141,188.6635,82.3520,88.45505,0.0011847,0.98573130,0.0000,03/15.1778/2021,2000,g 19.0,4.0
# From MPEC 2022-L66
C/2021 B2 (PANSTARRS),e,38.0865,120.5356,334.9684,356.6593,0.0001463,0.99295655,0.0000,05/04.3151/2021,2000,g 14.0,4.0
# From MPEC 2021-N06
C/2021 B3 (NEOWISE),e,119.4814,67.2855,293.5443,34.60156,0.0048424,0.93755810,3.1684,12/25.0/2022,2000,g 13.5,4.0
# From MPEC 2022-ED3
C/2021 C1 (Rankin),e,143.0455,186.8997,336.2606,16906,0.0000004,0.99979423,0.0000,12/07.0040/2020,2000,g 11.5,4.0
# From MPEC 2021-U31
P/2021 C2 (PANSTARRS),e,21.9331,66.4647,78.7374,9.534056,0.0334802,0.48728304,22.4093,12/25.0/2022,2000,g 12.0,4.0
# From MPEC 2021-N06
C/2021 C3 (Catalina),e,122.1643,181.9278,357.0935,62.29827,0.0020044,0.96348503,1.3645,12/25.0/2022,2000,g 14.0,4.0
# From MPEC 2022-M88
C/2021 C4 (ATLAS),h,01/17.0854/2021,132.8542,194.2781,320.2133,1.000022,4.502758,2000,9.0,4.0
# From MPEC 2022-YB4
C/2021 C5 (PANSTARRS),e,50.7816,323.6847,270.9219,2654,0.0000072,0.99877849,0.0000,02/11.0794/2023,2000,g  9.0,4.0
# From MPEC 2022-YB4
C/2021 C6 (Lemmon),h,11/13.2626/2021,164.6257,332.1559,203.5608,1.001122,3.271532,2000,12.0,4.0
# From MPEC 2022-F14
C/2021 D1 (SWAN),e,31.4392,311.2512,72.2653,99.65886,0.0009907,0.99094860,0.0000,02/27.7183/2021,2000,g 13.0,4.0
# From MPEC 2022-X67
C/2021 D2 (ZTF),h,02/03.9841/2022,83.8217,305.6801,125.0276,1.001708,2.946261,2000,9.0,4.0
# From MPEC 2022-UY9
A/2021 E2,e,167.4882,190.8233,342.4109,228.8789,0.0002846,0.99001347,0.0000,12/10.4299/2020,2000,g 15.0,2.0
# From MPEC 2022-YB4
C/2021 E3 (ZTF),h,06/11.9117/2022,112.5537,104.4724,228.8524,1.000914,1.777405,2000,8.5,4.0
# From MPEC 2022-UY9
A/2021 E4,e,116.3611,171.1727,48.2646,617.4350,0.0000642,0.99242687,0.0000,04/25.2134/2022,2000,g 13.5,2.0
# From MPEC 2022-QD9
C/2021 F1 (Lemmon-PANSTARRS),e,107.3263,203.4531,146.8181,230.0252,0.0002825,0.99567239,0.0000,04/06.8583/2022,2000,g 13.5,4.0
# From MPEC 2021-J72
C/2021 G1 (Leonard),e,131.5520,270.6998,107.4579,74.43441,0.0015348,0.95401099,0.7995,12/25.0/2022,2000,g 14.0,4.0
# From MPEC 2022-YB4
C/2021 G2 (ATLAS),e,48.4731,221.1000,343.3422,5178,0.0000026,0.99903806,0.0000,09/09.7783/2024,2000,g  5.5,4.0
# From MPEC 2022-X67
C/2021 G3 (PANSTARRS),h,10/18.2800/2021,102.8772,147.4121,10.6114,1.000455,5.180473,2000,10.5,4.0
# From MPEC 2021-Y10
P/2021 HS (PANSTARRS),e,12.1658,262.3866,46.1075,4.194623,0.1147268,0.80995639,58.0163,12/25.0/2022,2000,g 22.0,4.0
# From MPEC 2022-C56
C/2021 J1 (Maury-Attard),e,92.7215,88.3488,147.3307,26.40730,0.0072630,0.93407281,4.8923,12/25.0/2022,2000,g 15.5,4.0
# From MPEC 2022-YB4
C/2021 J2 (PANSTARRS),e,156.2128,23.3342,172.0384,117.9669,0.0007692,0.96010942,0.3528,12/25.0/2022,2000,g 12.0,4.0
# From MPEC 2021-S45
P/2021 J3 (ATLAS),e,14.5358,111.1668,126.0462,8.936633,0.0368929,0.44948061,46.8311,12/25.0/2022,2000,g  7.0,4.0
# From MPEC 2022-O08
C/2021 K1 (ATLAS),e,16.2757,140.9033,184.2808,12.67997,0.0218286,0.80297835,13.0898,12/25.0/2022,2000,g 11.0,4.0
# From MPEC 2022-O01
C/2021 K2 (MASTER),h,09/09.4606/2021,100.8535,282.2489,343.3592,1.001084,5.467822,2000,8.0,4.0
# From MPEC 2022-L66
C/2021 K3 (Catalina),h,02/03.0774/2022,134.7789,114.4557,182.0425,1.003140,5.229902,2000,10.0,4.0
# From MPEC 2021-W31
P/2021 L2 (Leonard),e,21.0694,266.6571,51.5127,4.049360,0.1209552,0.52124829,62.7327,12/25.0/2022,2000,g 17.0,4.0
# From MPEC 2022-UE6
C/2021 L3 (Borisov),h,02/13.9097/2022,78.5791,344.9728,91.6044,1.002873,8.457868,2000,6.0,4.0
# From MPEC 2022-ST7
P/2021 L4 (PANSTARRS),e,16.9596,243.2113,234.4543,3.165982,0.1749611,0.11830937,211.6488,12/25.0/2022,2000,g 13.5,4.0
# From MPEC 2022-TA0
P/2021 N1 (ZTF),e,11.5005,301.1637,21.2176,2.977685,0.1918165,0.67653133,108.6665,12/25.0/2022,2000,g 19.0,4.0
# From MPEC 2022-YB4
P/2021 N2 (Fuls),e,13.0617,221.7382,177.4139,6.936015,0.0539559,0.45252247,21.9226,12/25.0/2022,2000,g  9.5,4.0
# From MPEC 2022-YB4
C/2021 N3 (PANSTARRS),e,26.7406,337.4932,304.7621,154.7889,0.0005118,0.96307301,0.4388,12/25.0/2022,2000,g  8.5,4.0
# From MPEC 2022-A21
C/2021 O1 (Nishimura),e,27.5848,41.6162,74.4149,2333,0.0000087,0.99966303,0.0000,08/13.9655/2021,2000,g 10.5,4.0
# From MPEC 2022-L66
C/2021 O3 (PANSTARRS),h,04/21.0461/2022,56.7940,189.0192,299.9776,1.000077,0.287225,2000,10.5,4.0
# From MPEC 2022-CN4
C/2021 P1 (PANSTARRS),e,51.6365,359.6761,40.4487,2550,0.0000077,0.99828485,0.0000,06/02.2966/2022,2000,g 11.0,4.0
# From MPEC 2022-WQ9
C/2021 P2 (PANSTARRS),e,150.0634,32.0787,76.6825,2436,0.0000082,0.99791928,0.0000,01/22.6466/2023,2000,g  9.0,4.0
# From MPEC 2021-W31
P/2021 P3 (PANSTARRS),e,27.1616,358.2392,334.1017,4.412973,0.1063181,0.33925478,60.9956,12/25.0/2022,2000,g 14.0,4.0
# From MPEC 2022-P82
C/2021 P4 (ATLAS),e,56.3105,348.0938,175.8153,317.5938,0.0001741,0.99659814,0.0000,07/30.3637/2022,2000,g  9.5,4.0
# From MPEC 2022-WQ9
C/2021 Q3 (ATLAS),e,77.7684,307.9097,114.0951,75.48950,0.0015027,0.93105414,0.5002,12/25.0/2022,2000,g  8.0,4.0
# From MPEC 2022-WQ9
C/2021 Q4 (Fuls),h,06/10.1388/2023,71.4730,183.3337,146.9780,1.003238,7.564815,2000,6.0,4.0
# From MPEC 2022-C56
P/2021 Q5 (ATLAS),e,10.7367,239.7552,180.9141,3.286435,0.1654308,0.62446067,79.6533,12/25.0/2022,2000,g 15.0,4.0
# From MPEC 2022-Y15
C/2021 Q6 (PANSTARRS),e,161.8475,133.5339,140.9122,17587,0.0000004,0.99950476,0.0000,03/23.1676/2024,2000,g  6.0,4.0
# From MPEC 2022-YB4
C/2021 QM45 (PANSTARRS),e,22.8223,354.5888,72.8124,355.1872,0.0001472,0.99219200,0.0000,08/13.4623/2022,2000,g 11.0,4.0
# From MPEC 2022-X67
P/2021 R1 (PANSTARRS),e,5.5192,143.3652,220.3637,8.356682,0.0407994,0.41531799,15.2045,12/25.0/2022,2000,g 11.0,4.0
# From MPEC 2022-X67
C/2021 R2 (PANSTARRS),e,134.4810,16.2946,32.4182,2417,0.0000083,0.99697437,0.0000,12/26.5556/2021,2000,g  7.5,4.0
# From MPEC 2021-W31
P/2021 R3 (PANSTARRS),e,19.9276,304.2060,2.8127,3.773272,0.1344705,0.33119577,77.6954,12/25.0/2022,2000,g 16.0,4.0
# From MPEC 2021-W31
P/2021 R4 (Wierzchos),e,21.0381,321.2598,56.6664,5.620403,0.0739695,0.58601957,32.3228,12/25.0/2022,2000,g 16.0,4.0
# From MPEC 2022-Y15
P/2021 R5 (Rankin),e,7.8547,219.9588,167.4119,4.793504,0.0939127,0.30674316,32.5562,12/25.0/2022,2000,g 12.0,4.0
# From MPEC 2021-W31
P/2021 R6 (Groeller),e,34.9268,176.1146,220.7701,6.277702,0.0626618,0.59335822,26.2539,12/25.0/2022,2000,g 14.5,4.0
# From MPEC 2022-X67
C/2021 R7 (PANSTARRS),e,158.8452,170.1424,140.2660,875.0923,0.0000381,0.99354321,0.0000,04/16.5023/2021,2000,g 10.5,4.0
# From MPEC 2021-Y10
P/2021 R8 (Sheppard),e,2.2034,167.0272,190.8038,3.017388,0.1880431,0.29355487,83.3988,12/25.0/2022,2000,g 18.5,4.0
# From MPEC 2022-YB4
C/2021 S1 (ATLAS),h,03/01.0084/2022,52.0784,299.8775,148.1893,1.001714,6.119246,2000,7.0,4.0
# From MPEC 2022-YB4
C/2021 S3 (PANSTARRS),e,58.5339,215.6239,6.8797,85927,0.0000000,0.99998464,0.0000,02/14.7424/2024,2000,g  5.5,4.0
# From MPEC 2022-YB4
C/2021 S4 (Tsuchinshan),e,17.4801,5.4969,72.7779,164.6558,0.0004665,0.95936347,359.8263,12/25.0/2022,2000,g  6.5,4.0
# From MPEC 2022-OB6
C/2021 T1 (Lemmon),e,140.3524,56.8327,51.5274,1267,0.0000219,0.99758521,0.0000,10/14.0701/2021,2000,g 12.5,4.0
# From MPEC 2022-ED3
C/2021 T2 (Fuls),h,06/07.8990/2022,117.5326,223.2317,263.5970,1.000282,1.247748,2000,12.0,4.0
# From MPEC 2022-YB4
C/2021 T4 (Lemmon),h,07/31.4976/2023,160.7714,257.8488,329.7810,1.000216,1.483127,2000,7.5,4.0
# From MPEC 2022-ED3
P/2021 U1 (Wierzchos),e,30.5557,246.7808,145.0895,8.519356,0.0396364,0.71292435,17.8333,12/25.0/2022,2000,g 14.5,4.0
# From MPEC 2022-L66
P/2021 U3 (Attard-Maury),e,69.9584,75.1028,335.2287,4.192296,0.1148223,0.54986630,48.9288,12/25.0/2022,2000,g 15.5,4.0
# From MPEC 2021-W31
C/2021 U4 (Leonard),e,152.8790,241.8110,237.2874,44.70866,0.0032970,0.96001386,1.2135,12/25.0/2022,2000,g 17.0,4.0
# From MPEC 2022-WQ9
